0 COSMOS 1174 DEB
1 12354U 80030Y   13281.80174851  .00003091  00000-0  19282-3 0   927
2 12354 066.1141 064.1374 0476000 293.8051 061.3839 14.48804498722074
0 COSMOS 1174 DEB
1 12354U 80030Y   13282.83719992  .00003394  00000-0  21045-3 0   939
2 12354 066.1140 061.2655 0475994 293.1730 061.9908 14.48817647722221
0 COSMOS 1174 DEB
1 12354U 80030Y   13283.87264350  .00004592  00000-0  28031-3 0   941
2 12354 066.1142 058.3951 0475989 292.5347 062.6041 14.48822014722376
0 COSMOS 1174 DEB
1 12354U 80030Y   13285.39128617  .00003633  00000-0  22421-3 0   958
2 12354 066.1142 054.1831 0476017 291.6067 063.4966 14.48834953722593
0 COSMOS 1174 DEB
1 12354U 80030Y   13286.42671661  .00003903  00000-0  23991-3 0   969
2 12354 066.1143 051.3108 0476027 290.9753 064.1047 14.48841662722745
0 COSMOS 1174 DEB
1 12354U 80030Y   13287.46214238  .00004498  00000-0  27452-3 0   974
2 12354 066.1148 048.4388 0476032 290.3468 064.7106 14.48849548722899
0 COSMOS 1174 DEB
1 12354U 80030Y   13288.49756109  .00005900  00000-0  35607-3 0   987
2 12354 066.1152 045.5668 0476022 289.7172 065.3182 14.48862749723043
0 COSMOS 1174 DEB
1 12354U 80030Y   13289.74005246  .00006431  00000-0  38687-3 0   997
2 12354 066.1154 042.1201 0476021 288.9597 066.0500 14.48871907723220
0 COSMOS 1174 DEB
1 12354U 80030Y   13290.77545534  .00005311  00000-0  32157-3 0  1006
2 12354 066.1158 039.2486 0475991 288.3278 066.6614 14.48884249723372
0 COSMOS 1174 DEB
1 12354U 80030Y   13292.43208322  .00005659  00000-0  34166-3 0  1010
2 12354 066.1159 034.6539 0475982 287.3139 067.6433 14.48899830723615
0 COSMOS 1174 DEB
1 12354U 80030Y   13293.46746653  .00006172  00000-0  37146-3 0  1021
2 12354 066.1159 031.7829 0475966 286.6808 068.2573 14.48910317723764
0 COSMOS 1174 DEB
1 12354U 80030Y   13294.50284184  .00006785  00000-0  40694-3 0  1036
2 12354 066.1157 028.9110 0475961 286.0518 068.8678 14.48920439723915
0 COSMOS 1174 DEB
1 12354U 80030Y   13295.74528263  .00007081  00000-0  42402-3 0  1042
2 12354 066.1155 025.4644 0475954 285.2975 069.6008 14.48933773724098
